STARLINK-36572          
1 67536U 26014E   26038.85715626  .00226729  00000+0  11508-2 0  9993
2 67536  97.2840 282.2651 0001495 101.2766 258.8670 15.80875355  3878
STARLINK-36561          
1 67537U 26014F   26038.91667824 -.00018316  00000+0 -12229-3 0  9992
2 67537  97.2815 282.3151 0001553 108.7055 207.9039 15.75170749  3902
STARLINK-36397          
1 67538U 26014G   26038.91667824 -.00043005  00000+0 -28899-3 0  9996
2 67538  97.2840 282.3075 0001543  88.7862 205.8294 15.75182668  3901
STARLINK-36573          
1 67539U 26014H   26038.85425084  .00197795  00000+0  10063-2 0  9997
2 67539  97.2850 282.2669 0001537  76.3478 283.7962 15.80898765  3871
STARLINK-36585          
1 67540U 26014J   26038.91667824 -.00000767  00000+0 -42787-5 0  9991
2 67540  97.2798 282.3240 0001433 103.9457 236.6614 15.75172938  3905
STARLINK-36579          
1 67541U 26014K   26038.85203885  .00133544  00000+0  68552-3 0  9992
2 67541  97.2845 282.2712 0001013 122.5849 237.5517 15.80873384  3875
STARLINK-35934          
1 67542U 26014L   26038.85062027  .00206622  00000+0  10506-2 0  9997
2 67542  97.2851 282.2721 0001943  55.4471 304.6981 15.80887844  3866
STARLINK-36581          
1 67543U 26014M   26038.84941725 -.00182835  00000+0 -97398-3 0  9994
2 67543  97.2785 282.2716 0004126 138.8731 221.2849 15.80797199  3879
STARLINK-36565          
1 67544U 26014N   26038.91667824 -.00016396  00000+0 -85201-4 0  9997
2 67544  97.2854 282.3461 0001195  96.6611 291.9750 15.80769575  3902
STARLINK-36583          
1 67545U 26014P   26038.91667824 -.00063958  00000+0 -43097-3 0  9990
2 67545  97.2858 282.3343 0000895 101.3308 261.2778 15.75200060  3902
STARLINK-36580          
1 67546U 26014Q   26038.91667824  .00126676  00000+0  65473-3 0  9998
2 67546  97.2838 282.3496 0001343  92.8701 309.6401 15.80741922  3903
STARLINK-36584          
1 67547U 26014R   26038.91667824 -.00077004  00000+0 -40455-3 0  9994
2 67547  97.2764 282.3497 0001521  98.8154 309.1668 15.80830244  3905
