CCSDS_OMM_VERS = 2.0
CREATION_DATE  = 
ORIGINATOR     = 

OBJECT_NAME    = STARLINK-36572
OBJECT_ID      = 2026-014E
CENTER_NAME    = EARTH
REF_FRAME      = TEME
TIME_SYSTEM    = UTC
MEAN_ELEMENT_THEORY = SGP/SGP4

EPOCH          = 2026-02-07T20:34:18.300864
MEAN_MOTION    = 15.80875355
ECCENTRICITY   = .00014956
INCLINATION    = 97.2840
RA_OF_ASC_NODE = 282.2651
ARG_OF_PERICENTER = 101.2766
MEAN_ANOMALY   = 258.8670

EPHEMERIS_TYPE = 0
CLASSIFICATION_TYPE = U
NORAD_CAT_ID   = 67536
ELEMENT_SET_NO = 999
REV_AT_EPOCH   = 387
BSTAR          = .11507976E-2
MEAN_MOTION_DOT = .226729E-2
MEAN_MOTION_DDOT = 0

CCSDS_OMM_VERS = 2.0
CREATION_DATE  = 
ORIGINATOR     = 

OBJECT_NAME    = STARLINK-36561
OBJECT_ID      = 2026-014F
CENTER_NAME    = EARTH
REF_FRAME      = TEME
TIME_SYSTEM    = UTC
MEAN_ELEMENT_THEORY = SGP/SGP4

EPOCH          = 2026-02-07T22:00:00.999936
MEAN_MOTION    = 15.75170749
ECCENTRICITY   = .00015538
INCLINATION    = 97.2815
RA_OF_ASC_NODE = 282.3151
ARG_OF_PERICENTER = 108.7055
MEAN_ANOMALY   = 207.9039

EPHEMERIS_TYPE = 0
CLASSIFICATION_TYPE = U
NORAD_CAT_ID   = 67537
ELEMENT_SET_NO = 999
REV_AT_EPOCH   = 390
BSTAR          = -.1222919E-3
MEAN_MOTION_DOT = -.18316E-3
MEAN_MOTION_DDOT = 0

CCSDS_OMM_VERS = 2.0
CREATION_DATE  = 
ORIGINATOR     = 

OBJECT_NAME    = STARLINK-36397
OBJECT_ID      = 2026-014G
CENTER_NAME    = EARTH
REF_FRAME      = TEME
TIME_SYSTEM    = UTC
MEAN_ELEMENT_THEORY = SGP/SGP4

EPOCH          = 2026-02-07T22:00:00.999936
MEAN_MOTION    = 15.75182668
ECCENTRICITY   = .00015436
INCLINATION    = 97.2840
RA_OF_ASC_NODE = 282.3075
ARG_OF_PERICENTER = 88.7862
MEAN_ANOMALY   = 205.8294

EPHEMERIS_TYPE = 0
CLASSIFICATION_TYPE = U
NORAD_CAT_ID   = 67538
ELEMENT_SET_NO = 999
REV_AT_EPOCH   = 390
BSTAR          = -.28898845E-3
MEAN_MOTION_DOT = -.43005E-3
MEAN_MOTION_DDOT = 0

CCSDS_OMM_VERS = 2.0
CREATION_DATE  = 
ORIGINATOR     = 

OBJECT_NAME    = STARLINK-36573
OBJECT_ID      = 2026-014H
CENTER_NAME    = EARTH
REF_FRAME      = TEME
TIME_SYSTEM    = UTC
MEAN_ELEMENT_THEORY = SGP/SGP4

EPOCH          = 2026-02-07T20:30:07.272576
MEAN_MOTION    = 15.80898765
ECCENTRICITY   = .00015372
INCLINATION    = 97.2850
RA_OF_ASC_NODE = 282.2669
ARG_OF_PERICENTER = 76.3478
MEAN_ANOMALY   = 283.7962

EPHEMERIS_TYPE = 0
CLASSIFICATION_TYPE = U
NORAD_CAT_ID   = 67539
ELEMENT_SET_NO = 999
REV_AT_EPOCH   = 387
BSTAR          = .10063146E-2
MEAN_MOTION_DOT = .197795E-2
MEAN_MOTION_DDOT = 0

CCSDS_OMM_VERS = 2.0
CREATION_DATE  = 
ORIGINATOR     = 

OBJECT_NAME    = STARLINK-36585
OBJECT_ID      = 2026-014J
CENTER_NAME    = EARTH
REF_FRAME      = TEME
TIME_SYSTEM    = UTC
MEAN_ELEMENT_THEORY = SGP/SGP4

EPOCH          = 2026-02-07T22:00:00.999936
MEAN_MOTION    = 15.75172938
ECCENTRICITY   = .00014332
INCLINATION    = 97.2798
RA_OF_ASC_NODE = 282.3240
ARG_OF_PERICENTER = 103.9457
MEAN_ANOMALY   = 236.6614

EPHEMERIS_TYPE = 0
CLASSIFICATION_TYPE = U
NORAD_CAT_ID   = 67540
ELEMENT_SET_NO = 999
REV_AT_EPOCH   = 390
BSTAR          = -.4278668E-5
MEAN_MOTION_DOT = -.767E-5
MEAN_MOTION_DDOT = 0

CCSDS_OMM_VERS = 2.0
CREATION_DATE  = 
ORIGINATOR     = 

OBJECT_NAME    = STARLINK-36579
OBJECT_ID      = 2026-014K
CENTER_NAME    = EARTH
REF_FRAME      = TEME
TIME_SYSTEM    = UTC
MEAN_ELEMENT_THEORY = SGP/SGP4

EPOCH          = 2026-02-07T20:26:56.156640
MEAN_MOTION    = 15.80873384
ECCENTRICITY   = .00010136
INCLINATION    = 97.2845
RA_OF_ASC_NODE = 282.2712
ARG_OF_PERICENTER = 122.5849
MEAN_ANOMALY   = 237.5517

EPHEMERIS_TYPE = 0
CLASSIFICATION_TYPE = U
NORAD_CAT_ID   = 67541
ELEMENT_SET_NO = 999
REV_AT_EPOCH   = 387
BSTAR          = .68552082E-3
MEAN_MOTION_DOT = .133544E-2
MEAN_MOTION_DDOT = 0

CCSDS_OMM_VERS = 2.0
CREATION_DATE  = 
ORIGINATOR     = 

OBJECT_NAME    = STARLINK-35934
OBJECT_ID      = 2026-014L
CENTER_NAME    = EARTH
REF_FRAME      = TEME
TIME_SYSTEM    = UTC
MEAN_ELEMENT_THEORY = SGP/SGP4

EPOCH          = 2026-02-07T20:24:53.591328
MEAN_MOTION    = 15.80887844
ECCENTRICITY   = .00019439
INCLINATION    = 97.2851
RA_OF_ASC_NODE = 282.2721
ARG_OF_PERICENTER = 55.4471
MEAN_ANOMALY   = 304.6981

EPHEMERIS_TYPE = 0
CLASSIFICATION_TYPE = U
NORAD_CAT_ID   = 67542
ELEMENT_SET_NO = 999
REV_AT_EPOCH   = 386
BSTAR          = .10506258E-2
MEAN_MOTION_DOT = .206622E-2
MEAN_MOTION_DDOT = 0

CCSDS_OMM_VERS = 2.0
CREATION_DATE  = 
ORIGINATOR     = 

OBJECT_NAME    = STARLINK-36581
OBJECT_ID      = 2026-014M
CENTER_NAME    = EARTH
REF_FRAME      = TEME
TIME_SYSTEM    = UTC
MEAN_ELEMENT_THEORY = SGP/SGP4

EPOCH          = 2026-02-07T20:23:09.650400
MEAN_MOTION    = 15.80797199
ECCENTRICITY   = .00041267
INCLINATION    = 97.2785
RA_OF_ASC_NODE = 282.2716
ARG_OF_PERICENTER = 138.8731
MEAN_ANOMALY   = 221.2849

EPHEMERIS_TYPE = 0
CLASSIFICATION_TYPE = U
NORAD_CAT_ID   = 67543
ELEMENT_SET_NO = 999
REV_AT_EPOCH   = 387
BSTAR          = -.9739798E-3
MEAN_MOTION_DOT = -.182835E-2
MEAN_MOTION_DDOT = 0

CCSDS_OMM_VERS = 2.0
CREATION_DATE  = 
ORIGINATOR     = 

OBJECT_NAME    = STARLINK-36565
OBJECT_ID      = 2026-014N
CENTER_NAME    = EARTH
REF_FRAME      = TEME
TIME_SYSTEM    = UTC
MEAN_ELEMENT_THEORY = SGP/SGP4

EPOCH          = 2026-02-07T22:00:00.999936
MEAN_MOTION    = 15.80769575
ECCENTRICITY   = .00011959
INCLINATION    = 97.2854
RA_OF_ASC_NODE = 282.3461
ARG_OF_PERICENTER = 96.6611
MEAN_ANOMALY   = 291.9750

EPHEMERIS_TYPE = 0
CLASSIFICATION_TYPE = U
NORAD_CAT_ID   = 67544
ELEMENT_SET_NO = 999
REV_AT_EPOCH   = 390
BSTAR          = -.85200961E-4
MEAN_MOTION_DOT = -.16396E-3
MEAN_MOTION_DDOT = 0

CCSDS_OMM_VERS = 2.0
CREATION_DATE  = 
ORIGINATOR     = 

OBJECT_NAME    = STARLINK-36583
OBJECT_ID      = 2026-014P
CENTER_NAME    = EARTH
REF_FRAME      = TEME
TIME_SYSTEM    = UTC
MEAN_ELEMENT_THEORY = SGP/SGP4

EPOCH          = 2026-02-07T22:00:00.999936
MEAN_MOTION    = 15.75200060
ECCENTRICITY   = .0000895
INCLINATION    = 97.2858
RA_OF_ASC_NODE = 282.3343
ARG_OF_PERICENTER = 101.3308
MEAN_ANOMALY   = 261.2778

EPHEMERIS_TYPE = 0
CLASSIFICATION_TYPE = U
NORAD_CAT_ID   = 67545
ELEMENT_SET_NO = 999
REV_AT_EPOCH   = 390
BSTAR          = -.43097224E-3
MEAN_MOTION_DOT = -.63958E-3
MEAN_MOTION_DDOT = 0

CCSDS_OMM_VERS = 2.0
CREATION_DATE  = 
ORIGINATOR     = 

OBJECT_NAME    = STARLINK-36580
OBJECT_ID      = 2026-014Q
CENTER_NAME    = EARTH
REF_FRAME      = TEME
TIME_SYSTEM    = UTC
MEAN_ELEMENT_THEORY = SGP/SGP4

EPOCH          = 2026-02-07T22:00:00.999936
MEAN_MOTION    = 15.80741922
ECCENTRICITY   = .00013439
INCLINATION    = 97.2838
RA_OF_ASC_NODE = 282.3496
ARG_OF_PERICENTER = 92.8701
MEAN_ANOMALY   = 309.6401

EPHEMERIS_TYPE = 0
CLASSIFICATION_TYPE = U
NORAD_CAT_ID   = 67546
ELEMENT_SET_NO = 999
REV_AT_EPOCH   = 390
BSTAR          = .65472582E-3
MEAN_MOTION_DOT = .126676E-2
MEAN_MOTION_DDOT = 0

CCSDS_OMM_VERS = 2.0
CREATION_DATE  = 
ORIGINATOR     = 

OBJECT_NAME    = STARLINK-36584
OBJECT_ID      = 2026-014R
CENTER_NAME    = EARTH
REF_FRAME      = TEME
TIME_SYSTEM    = UTC
MEAN_ELEMENT_THEORY = SGP/SGP4

EPOCH          = 2026-02-07T22:00:00.999936
MEAN_MOTION    = 15.80830244
ECCENTRICITY   = .00015215
INCLINATION    = 97.2764
RA_OF_ASC_NODE = 282.3497
ARG_OF_PERICENTER = 98.8154
MEAN_ANOMALY   = 309.1668

EPHEMERIS_TYPE = 0
CLASSIFICATION_TYPE = U
NORAD_CAT_ID   = 67547
ELEMENT_SET_NO = 999
REV_AT_EPOCH   = 390
BSTAR          = -.40454912E-3
MEAN_MOTION_DOT = -.77004E-3
MEAN_MOTION_DDOT = 0

